STARLINK-30256          
1 57522U 23115B   23250.91667824 -.02093402  00000+0 -74732-1 0  9993
2 57522  43.0000 291.3054 0001627 257.5479  72.4536 15.31553235  5789
STARLINK-30261          
1 57523U 23115C   23250.91667824 -.02094168  00000+0 -73698-1 0  9994
2 57523  43.0000 291.2890 0001663 261.7763  74.9732 15.32007040  5942
STARLINK-30260          
1 57524U 23115D   23251.16667824  .00007019  00000+0  37089-3 0  9994
2 57524  42.9996 290.6152 0000761 295.2962  31.5437 15.15949632  5652
STARLINK-30253          
1 57525U 23115E   23250.91667824 -.02091602  00000+0 -78302-1 0  9993
2 57525  42.9996 291.3521 0001734 261.5698  48.9836 15.30034863  5882
STARLINK-30257          
1 57526U 23115F   23251.16667824  .00026611  00000+0  13723-2 0  9993
2 57526  43.0004 291.0036 0001699 253.6815 271.4243 15.15872827  5817
STARLINK-30250          
1 57527U 23115G   23250.91667824 -.02087963  00000+0 -95896-1 0  9997
2 57527  42.9993 291.6344 0001353 285.0820 268.2658 15.23351337  5825
STARLINK-30269          
1 57528U 23115H   23251.16667824  .00212342  00000+0  10623-1 0  9998
2 57528  43.0001 290.8251 0001171 254.3622 345.3459 15.15762484  5986
STARLINK-30266          
1 57529U 23115J   23250.91667824 -.02088872  00000+0 -83069-1 0  9998
2 57529  42.9997 291.4232 0001603 244.1628  36.8945 15.28085547  5982
STARLINK-30270          
1 57530U 23115K   23250.91667824 -.02088005  00000+0 -10629+0 0  9998
2 57530  42.9993 291.8062 0001388 272.3965 209.4476 15.19885799  6044
STARLINK-30268          
1 57531U 23115L   23250.91667824 -.02086365  00000+0 -10899+0 0  9995
2 57531  42.9993 291.8603 0001342 271.9697 187.4416 15.19000739  5886
STARLINK-30251          
1 57532U 23115M   23250.91667824  .00016546  00000+0  85717-3 0  9991
2 57532  43.0004 292.2705 0001757 287.0116   1.8229 15.15946714  6053
STARLINK-30254          
1 57533U 23115N   23250.83151704  .00135914  00000+0  23215-2 0  9993
2 57533  42.9981 291.4491 0001249 324.1191  35.9585 15.50101946  4837
STARLINK-30264          
1 57534U 23115P   23251.16667824 -.02658275  00000+0 -99248-1 0  9998
2 57534  42.9995 289.8926 0001295 285.8463 341.2725 15.30407771  6084
STARLINK-30262          
1 57535U 23115Q   23250.91667824 -.02087973  00000+0 -92370-1 0  9991
2 57535  42.9996 291.5633 0001287 299.8521 282.8827 15.24596502  5987
2023-117A               
1 57580U 23117A   23251.14734834  .00014354  00000+0  84741-3 0  9999
2 57580  97.5211 322.5649 0012797 186.8006 173.3053 15.11560897  4388
2023-117B               
1 57581U 23117B   23251.14720401  .00014421  00000+0  85120-3 0  9992
2 57581  97.5204 322.5627 0012568 187.2972 172.8078 15.11570459  4375
2023-117C               
1 57582U 23117C   23251.14978100  .00006043  00000+0  36230-3 0  9993
2 57582  97.5211 322.5624 0011873 186.9170 173.1898 15.11273563  4375
