[{"OBJECT_NAME":"STARLINK-30256","OBJECT_ID":"2023-115B","EPOCH":"2023-09-07T22:00:00.999936","MEAN_MOTION":15.31553235,"ECCENTRICITY":0.0001627,"INCLINATION":43,"RA_OF_ASC_NODE":291.3054,"ARG_OF_PERICENTER":257.5479,"MEAN_ANOMALY":72.4536,"EPHEMERIS_TYPE":0,"CLASSIFICATION_TYPE":"U","NORAD_CAT_ID":57522,"ELEMENT_SET_NO":999,"REV_AT_EPOCH":578,"BSTAR":-0.074732,"MEAN_MOTION_DOT":-0.02093402,"MEAN_MOTION_DDOT":0},{"OBJECT_NAME":"STARLINK-30261","OBJECT_ID":"2023-115C","EPOCH":"2023-09-07T22:00:00.999936","MEAN_MOTION":15.3200704,"ECCENTRICITY":0.0001663,"INCLINATION":43,"RA_OF_ASC_NODE":291.289,"ARG_OF_PERICENTER":261.7763,"MEAN_ANOMALY":74.9732,"EPHEMERIS_TYPE":0,"CLASSIFICATION_TYPE":"U","NORAD_CAT_ID":57523,"ELEMENT_SET_NO":999,"REV_AT_EPOCH":594,"BSTAR":-0.073698,"MEAN_MOTION_DOT":-0.02094168,"MEAN_MOTION_DDOT":0},{"OBJECT_NAME":"STARLINK-30260","OBJECT_ID":"2023-115D","EPOCH":"2023-09-08T04:00:00.999936","MEAN_MOTION":15.15949632,"ECCENTRICITY":7.61e-5,"INCLINATION":42.9996,"RA_OF_ASC_NODE":290.6152,"ARG_OF_PERICENTER":295.2962,"MEAN_ANOMALY":31.5437,"EPHEMERIS_TYPE":0,"CLASSIFICATION_TYPE":"U","NORAD_CAT_ID":57524,"ELEMENT_SET_NO":999,"REV_AT_EPOCH":565,"BSTAR":0.00037089,"MEAN_MOTION_DOT":7.019e-5,"MEAN_MOTION_DDOT":0},{"OBJECT_NAME":"STARLINK-30253","OBJECT_ID":"2023-115E","EPOCH":"2023-09-07T22:00:00.999936","MEAN_MOTION":15.30034863,"ECCENTRICITY":0.0001734,"INCLINATION":42.9996,"RA_OF_ASC_NODE":291.3521,"ARG_OF_PERICENTER":261.5698,"MEAN_ANOMALY":48.9836,"EPHEMERIS_TYPE":0,"CLASSIFICATION_TYPE":"U","NORAD_CAT_ID":57525,"ELEMENT_SET_NO":999,"REV_AT_EPOCH":588,"BSTAR":-0.078302,"MEAN_MOTION_DOT":-0.02091602,"MEAN_MOTION_DDOT":0},{"OBJECT_NAME":"STARLINK-30257","OBJECT_ID":"2023-115F","EPOCH":"2023-09-08T04:00:00.999936","MEAN_MOTION":15.15872827,"ECCENTRICITY":0.0001699,"INCLINATION":43.0004,"RA_OF_ASC_NODE":291.0036,"ARG_OF_PERICENTER":253.6815,"MEAN_ANOMALY":271.4243,"EPHEMERIS_TYPE":0,"CLASSIFICATION_TYPE":"U","NORAD_CAT_ID":57526,"ELEMENT_SET_NO":999,"REV_AT_EPOCH":581,"BSTAR":0.0013723,"MEAN_MOTION_DOT":0.00026611,"MEAN_MOTION_DDOT":0},{"OBJECT_NAME":"STARLINK-30250","OBJECT_ID":"2023-115G","EPOCH":"2023-09-07T22:00:00.999936","MEAN_MOTION":15.23351337,"ECCENTRICITY":0.0001353,"INCLINATION":42.9993,"RA_OF_ASC_NODE":291.6344,"ARG_OF_PERICENTER":285.082,"MEAN_ANOMALY":268.2658,"EPHEMERIS_TYPE":0,"CLASSIFICATION_TYPE":"U","NORAD_CAT_ID":57527,"ELEMENT_SET_NO":999,"REV_AT_EPOCH":582,"BSTAR":-0.095896,"MEAN_MOTION_DOT":-0.02087963,"MEAN_MOTION_DDOT":0},{"OBJECT_NAME":"STARLINK-30269","OBJECT_ID":"2023-115H","EPOCH":"2023-09-08T04:00:00.999936","MEAN_MOTION":15.15762484,"ECCENTRICITY":0.0001171,"INCLINATION":43.0001,"RA_OF_ASC_NODE":290.8251,"ARG_OF_PERICENTER":254.3622,"MEAN_ANOMALY":345.3459,"EPHEMERIS_TYPE":0,"CLASSIFICATION_TYPE":"U","NORAD_CAT_ID":57528,"ELEMENT_SET_NO":999,"REV_AT_EPOCH":598,"BSTAR":0.010623,"MEAN_MOTION_DOT":0.00212342,"MEAN_MOTION_DDOT":0},{"OBJECT_NAME":"STARLINK-30266","OBJECT_ID":"2023-115J","EPOCH":"2023-09-07T22:00:00.999936","MEAN_MOTION":15.28085547,"ECCENTRICITY":0.0001603,"INCLINATION":42.9997,"RA_OF_ASC_NODE":291.4232,"ARG_OF_PERICENTER":244.1628,"MEAN_ANOMALY":36.8945,"EPHEMERIS_TYPE":0,"CLASSIFICATION_TYPE":"U","NORAD_CAT_ID":57529,"ELEMENT_SET_NO":999,"REV_AT_EPOCH":598,"BSTAR":-0.083069,"MEAN_MOTION_DOT":-0.02088872,"MEAN_MOTION_DDOT":0},{"OBJECT_NAME":"STARLINK-30270","OBJECT_ID":"2023-115K","EPOCH":"2023-09-07T22:00:00.999936","MEAN_MOTION":15.19885799,"ECCENTRICITY":0.0001388,"INCLINATION":42.9993,"RA_OF_ASC_NODE":291.8062,"ARG_OF_PERICENTER":272.3965,"MEAN_ANOMALY":209.4476,"EPHEMERIS_TYPE":0,"CLASSIFICATION_TYPE":"U","NORAD_CAT_ID":57530,"ELEMENT_SET_NO":999,"REV_AT_EPOCH":604,"BSTAR":-0.10629,"MEAN_MOTION_DOT":-0.02088005,"MEAN_MOTION_DDOT":0},{"OBJECT_NAME":"STARLINK-30268","OBJECT_ID":"2023-115L","EPOCH":"2023-09-07T22:00:00.999936","MEAN_MOTION":15.19000739,"ECCENTRICITY":0.0001342,"INCLINATION":42.9993,"RA_OF_ASC_NODE":291.8603,"ARG_OF_PERICENTER":271.9697,"MEAN_ANOMALY":187.4416,"EPHEMERIS_TYPE":0,"CLASSIFICATION_TYPE":"U","NORAD_CAT_ID":57531,"ELEMENT_SET_NO":999,"REV_AT_EPOCH":588,"BSTAR":-0.10899,"MEAN_MOTION_DOT":-0.02086365,"MEAN_MOTION_DDOT":0},{"OBJECT_NAME":"STARLINK-30251","OBJECT_ID":"2023-115M","EPOCH":"2023-09-07T22:00:00.999936","MEAN_MOTION":15.15946714,"ECCENTRICITY":0.0001757,"INCLINATION":43.0004,"RA_OF_ASC_NODE":292.2705,"ARG_OF_PERICENTER":287.0116,"MEAN_ANOMALY":1.8229,"EPHEMERIS_TYPE":0,"CLASSIFICATION_TYPE":"U","NORAD_CAT_ID":57532,"ELEMENT_SET_NO":999,"REV_AT_EPOCH":605,"BSTAR":0.00085717,"MEAN_MOTION_DOT":0.00016546,"MEAN_MOTION_DDOT":0},{"OBJECT_NAME":"STARLINK-30254","OBJECT_ID":"2023-115N","EPOCH":"2023-09-07T19:57:23.072256","MEAN_MOTION":15.50101946,"ECCENTRICITY":0.0001249,"INCLINATION":42.9981,"RA_OF_ASC_NODE":291.4491,"ARG_OF_PERICENTER":324.1191,"MEAN_ANOMALY":35.9585,"EPHEMERIS_TYPE":0,"CLASSIFICATION_TYPE":"U","NORAD_CAT_ID":57533,"ELEMENT_SET_NO":999,"REV_AT_EPOCH":483,"BSTAR":0.0023215,"MEAN_MOTION_DOT":0.00135914,"MEAN_MOTION_DDOT":0},{"OBJECT_NAME":"STARLINK-30264","OBJECT_ID":"2023-115P","EPOCH":"2023-09-08T04:00:00.999936","MEAN_MOTION":15.30407771,"ECCENTRICITY":0.0001295,"INCLINATION":42.9995,"RA_OF_ASC_NODE":289.8926,"ARG_OF_PERICENTER":285.8463,"MEAN_ANOMALY":341.2725,"EPHEMERIS_TYPE":0,"CLASSIFICATION_TYPE":"U","NORAD_CAT_ID":57534,"ELEMENT_SET_NO":999,"REV_AT_EPOCH":608,"BSTAR":-0.099248,"MEAN_MOTION_DOT":-0.02658275,"MEAN_MOTION_DDOT":0},{"OBJECT_NAME":"STARLINK-30262","OBJECT_ID":"2023-115Q","EPOCH":"2023-09-07T22:00:00.999936","MEAN_MOTION":15.24596502,"ECCENTRICITY":0.0001287,"INCLINATION":42.9996,"RA_OF_ASC_NODE":291.5633,"ARG_OF_PERICENTER":299.8521,"MEAN_ANOMALY":282.8827,"EPHEMERIS_TYPE":0,"CLASSIFICATION_TYPE":"U","NORAD_CAT_ID":57535,"ELEMENT_SET_NO":999,"REV_AT_EPOCH":598,"BSTAR":-0.09237,"MEAN_MOTION_DOT":-0.02087973,"MEAN_MOTION_DDOT":0},{"OBJECT_NAME":"2023-117A","OBJECT_ID":"2023-117A","EPOCH":"2023-09-08T03:32:10.896576","MEAN_MOTION":15.11560897,"ECCENTRICITY":0.0012797,"INCLINATION":97.5211,"RA_OF_ASC_NODE":322.5649,"ARG_OF_PERICENTER":186.8006,"MEAN_ANOMALY":173.3053,"EPHEMERIS_TYPE":0,"CLASSIFICATION_TYPE":"U","NORAD_CAT_ID":57580,"ELEMENT_SET_NO":999,"REV_AT_EPOCH":438,"BSTAR":0.00084741,"MEAN_MOTION_DOT":0.00014354,"MEAN_MOTION_DDOT":0},{"OBJECT_NAME":"2023-117B","OBJECT_ID":"2023-117B","EPOCH":"2023-09-08T03:31:58.426464","MEAN_MOTION":15.11570459,"ECCENTRICITY":0.0012568,"INCLINATION":97.5204,"RA_OF_ASC_NODE":322.5627,"ARG_OF_PERICENTER":187.2972,"MEAN_ANOMALY":172.8078,"EPHEMERIS_TYPE":0,"CLASSIFICATION_TYPE":"U","NORAD_CAT_ID":57581,"ELEMENT_SET_NO":999,"REV_AT_EPOCH":437,"BSTAR":0.0008512,"MEAN_MOTION_DOT":0.00014421,"MEAN_MOTION_DDOT":0},{"OBJECT_NAME":"2023-117C","OBJECT_ID":"2023-117C","EPOCH":"2023-09-08T03:35:41.078400","MEAN_MOTION":15.11273563,"ECCENTRICITY":0.0011873,"INCLINATION":97.5211,"RA_OF_ASC_NODE":322.5624,"ARG_OF_PERICENTER":186.917,"MEAN_ANOMALY":173.1898,"EPHEMERIS_TYPE":0,"CLASSIFICATION_TYPE":"U","NORAD_CAT_ID":57582,"ELEMENT_SET_NO":999,"REV_AT_EPOCH":437,"BSTAR":0.0003623,"MEAN_MOTION_DOT":6.043e-5,"MEAN_MOTION_DDOT":0}]
